MOLNIYA 2-9             
1 07276U 74026A   22207.57003801  .00000144  00000+0  00000+0 0  9995
2 07276  64.2794 221.6760 6466834 280.8782  17.1943  2.45097635250173
MOLNIYA 2-10            
1 07376U 74056A   22207.68258140 -.00000766  00000+0  00000+0 0  9990
2 07376  64.1760  90.7551 6732988 286.4389  13.6115  2.01191073351144
MOLNIYA 1-S             
1 07392U 74060A   22208.75014500 -.00000065  00000+0  00000+0 0  9994
2 07392   5.0168 282.3404 0011933 208.6912 159.6572  1.00198341119936
MOLNIYA 1-29            
1 07780U 75036A   22208.05776302  .00000060  00000+0 -12048+0 0  9997
2 07780  63.4149 210.7887 6902827 288.7597  11.9337  2.00631163346418
MOLNIYA 2-14            
1 08195U 75081A   22208.26296884  .00000159  00000+0  00000+0 0  9996
2 08195  63.3839 183.6826 6803805 292.9749  11.3886  2.02057156343693
MOLNIYA 1-32            
1 08601U 76006A   22208.52263385 -.00000022  00000+0 -32773-2 0  9991
2 08601  63.4746 291.9971 7253441 283.7502  11.2878  2.00095441 53468
MOLNIYA 1-36            
1 09880U 77021A   22205.26360689  .00001012  00000+0  00000+0 0  9995
2 09880  63.4618 263.7387 7185642 289.6896  10.2857  2.00873065230102
MOLNIYA 3-8             
1 10455U 77105A   22208.45649511  .00000020  00000+0 -78942-3 0  9999
2 10455  63.3724 351.7959 7372606 282.2267  10.7696  2.00844799327869
MOLNIYA 1-40            
1 10925U 78055A   22207.12509853  .00000517  00000+0  00000+0 0  9999
2 10925  63.3238  42.7012 7261082 280.6508  11.7370  2.00675926323458
MOLNIYA 3-10            
1 11057U 78095A   22208.35954635  .00000149  00000+0  94448-3 0  9992
2 11057  63.1595  24.5453 5795041 310.6029  11.7423  4.09853756385360
MOLNIYA 3-13            
1 11896U 80063A   22207.85162830  .00000412  00000+0  00000+0 0  9993
2 11896  62.6891 132.4678 7097024 276.3102  14.1371  2.00649228307886
MOLNIYA 1-49            
1 12156U 81009A   22208.06013985  .00001023  00000+0 -33299-3 0  9994
2 12156  61.7024 159.5817 7262093 262.8254  17.4392  2.05700181222300
MOLNIYA 1-52            
1 13012U 81123A   22207.16884277 -.00000920  00000+0 -81865-2 0  9990
2 13012  61.7759 273.2906 7246179 255.2656  20.9953  2.00439154297352
MOLNIYA 1-53            
1 13070U 82015A   22208.98661216 -.00000941  00000+0 -29476-1 0  9994
2 13070  62.6454 209.1981 7043761 282.7779  12.6239  2.00825434296064
MOLNIYA 3-20            
1 13875U 83015A   22208.45945558  .00000939  00000+0  15892-2 0  9997
2 13875  62.7370 346.4626 7401774 258.3855  18.0725  2.00428161224519
MOLNIYA 1-56            
1 13890U 83019A   22208.70592437  .00000285  00000+0 -15063-3 0  9996
2 13890  63.0042  11.7010 7446646 264.3780  15.3035  1.99978792287404
MOLNIYA 1-63            
1 15429U 84124A   22208.84097757  .00001198  00000+0  00000+0 0  9998
2 15429  63.7440 163.9624 6633776 259.4996 258.7808  2.00761482275563
MOLNIYA 3-24            
1 15738U 85040A   22207.67128469 -.00000143  00000+0  00000+0 0  9994
2 15738  63.6735  75.5057 6808883 247.3177  30.7012  2.55627643304872
MOLNIYA 3-27            
1 16393U 85117A   22208.71671969 -.00000147  00000+0  00000+0 0  9995
2 16393  64.4035  76.3163 6982985 248.2791  27.9030  2.12397522275055
MOLNIYA 1-69            
1 17078U 86089A   22208.24798028 -.00000043  00000+0  00000+0 0  9994
2 17078  63.9953 182.8353 6642212 257.9646  25.8089  2.00686842261627
MOLNIYA 3-31            
1 17328U 87008A   22207.83613046  .00000375  00000+0  00000+0 0  9991
2 17328  63.6984 124.0986 7035764 253.8860  23.8848  2.00586636256656
MOLNIYA 1-71            
1 18946U 88017A   22207.78736921 -.00000198  00000+0  00000+0 0  9995
2 18946  63.4212 118.3337 7149643 256.4728  21.3182  2.00660059251847
MOLNIYA 1-75            
1 19807U 89014A   22207.49574637  .00000147  00000+0  00000+0 0  9995
2 19807  64.0633 280.3221 6860118 266.9131  19.4859  2.00580528244786
MOLNIYA 1-80            
1 21118U 91012A   22203.22196210 -.00000061  00000+0  00000+0 0  9994
2 21118  65.1909 329.1309 6793522 277.2158  16.0994  2.05234151231691
MOLNIYA 3-40            
1 21196U 91022A   22207.74336444 -.00001019  00000+0  00000+0 0  9991
2 21196  65.1139 322.2349 6822904 273.9268  17.0846  2.03008618230480
MOLNIYA 1-81            
1 21426U 91043A   22208.41211889  .00000040  00000+0  00000+0 0  9992
2 21426  64.1227 338.9796 7099357 266.8098  17.4393  2.00630430227964
MOLNIYA 3-41            
1 21706U 91065A   22208.52996484  .00000732  00000+0  00000+0 0  9998
2 21706  64.1053 161.7212 6835811 255.5703  25.1166  2.04353842227683
MOLNIYA 3-42            
1 22178U 92067A   22206.90289520  .00000194  00000+0  00000+0 0  9993
2 22178  64.6762 211.8834 6430194 266.4830  23.4514  2.20435626 80902
MOLNIYA 1-86            
1 22671U 93035A   22208.86986546  .00000198  00000+0  23399-3 0  9990
2 22671  63.0918 213.4707 4857982   7.6269 357.7115  5.62676624354571
MOLNIYA 1-87            
1 22949U 93079A   22205.02935780 -.00000168  00000+0  00000+0 0  9993
2 22949  63.9544  88.0929 6874262 284.2129  13.3376  2.02850409 75676
MOLNIYA 1-88            
1 23420U 94081A   22208.25577477  .00000089  00000+0  00000+0 0  9996
2 23420  64.2818 186.9079 5805289 282.3636  21.5063  3.34498165115039
MOLNIYA 3-47            
1 23642U 95042A   22207.88519415  .00000684  00000+0  00000+0 0  9997
2 23642  64.0645  69.5868 6927034 284.4532  12.9002  2.01924009197812
MOLNIYA 1-90            
1 24960U 97054A   22207.00303692  .00000057  00000+0 -57863-3 0  9996
2 24960  63.6388 153.8981 6116087 298.4956  13.6935  3.18689951209237
MOLNIYA 1-91            
1 25485U 98054A   22208.46149090  .00000142  00000+0  22925-2 0  9995
2 25485  63.0220 143.9568 6775752 291.8996 261.1104  2.36445408179321
MOLNIYA 3-50            
1 25847U 99036A   22208.39251848  .00000227  00000+0 -49215-3 0  9992
2 25847  63.1914 328.2046 7384149 282.0151  10.8351  2.00643349168916
